CCSDS_OMM_VERS = 2.0
CREATION_DATE  = 
ORIGINATOR     = 

OBJECT_NAME    = SL-3 R/B
OBJECT_ID      = 1982-079B
CENTER_NAME    = EARTH
REF_FRAME      = TEME
TIME_SYSTEM    = UTC
MEAN_ELEMENT_THEORY = SGP/SGP4

EPOCH          = 2026-02-26T05:56:40.795296
MEAN_MOTION    = 15.24597515
ECCENTRICITY   = .00246001
INCLINATION    = 81.1458
RA_OF_ASC_NODE = 206.5842
ARG_OF_PERICENTER = 203.4044
MEAN_ANOMALY   = 156.6072

EPHEMERIS_TYPE = 0
CLASSIFICATION_TYPE = U
NORAD_CAT_ID   = 13403
ELEMENT_SET_NO = 999
REV_AT_EPOCH   = 37595
BSTAR          = .27623977E-3
MEAN_MOTION_DOT = .6894E-4
MEAN_MOTION_DDOT = 0

CCSDS_OMM_VERS = 2.0
CREATION_DATE  = 
ORIGINATOR     = 

OBJECT_NAME    = SL-14 R/B
OBJECT_ID      = 1982-092B
CENTER_NAME    = EARTH
REF_FRAME      = TEME
TIME_SYSTEM    = UTC
MEAN_ELEMENT_THEORY = SGP/SGP4

EPOCH          = 2026-02-26T06:15:40.538304
MEAN_MOTION    = 14.86652769
ECCENTRICITY   = .00197948
INCLINATION    = 82.5711
RA_OF_ASC_NODE = 152.0871
ARG_OF_PERICENTER = 343.4202
MEAN_ANOMALY   = 35.8281

EPHEMERIS_TYPE = 0
CLASSIFICATION_TYPE = U
NORAD_CAT_ID   = 13553
ELEMENT_SET_NO = 999
REV_AT_EPOCH   = 32723
BSTAR          = .51414711E-4
MEAN_MOTION_DOT = .482E-5
MEAN_MOTION_DDOT = 0

CCSDS_OMM_VERS = 2.0
CREATION_DATE  = 
ORIGINATOR     = 

OBJECT_NAME    = SL-3 R/B
OBJECT_ID      = 1983-010B
CENTER_NAME    = EARTH
REF_FRAME      = TEME
TIME_SYSTEM    = UTC
MEAN_ELEMENT_THEORY = SGP/SGP4

EPOCH          = 2026-02-25T20:27:48.983328
MEAN_MOTION    = 15.45865966
ECCENTRICITY   = .00186429
INCLINATION    = 81.1044
RA_OF_ASC_NODE = 16.7528
ARG_OF_PERICENTER = 88.2238
MEAN_ANOMALY   = 272.1142

EPHEMERIS_TYPE = 0
CLASSIFICATION_TYPE = U
NORAD_CAT_ID   = 13819
ELEMENT_SET_NO = 999
REV_AT_EPOCH   = 35611
BSTAR          = .31420362E-3
MEAN_MOTION_DOT = .15396E-3
MEAN_MOTION_DDOT = 0

CCSDS_OMM_VERS = 2.0
CREATION_DATE  = 
ORIGINATOR     = 

OBJECT_NAME    = SL-3 R/B
OBJECT_ID      = 1983-075B
CENTER_NAME    = EARTH
REF_FRAME      = TEME
TIME_SYSTEM    = UTC
MEAN_ELEMENT_THEORY = SGP/SGP4

EPOCH          = 2026-02-26T05:42:55.403136
MEAN_MOTION    = 15.38094668
ECCENTRICITY   = .00196126
INCLINATION    = 97.6141
RA_OF_ASC_NODE = 61.3855
ARG_OF_PERICENTER = 271.0244
MEAN_ANOMALY   = 88.8753

EPHEMERIS_TYPE = 0
CLASSIFICATION_TYPE = U
NORAD_CAT_ID   = 14208
ELEMENT_SET_NO = 999
REV_AT_EPOCH   = 32839
BSTAR          = .31825949E-3
MEAN_MOTION_DOT = .11926E-3
MEAN_MOTION_DDOT = 0

CCSDS_OMM_VERS = 2.0
CREATION_DATE  = 
ORIGINATOR     = 

OBJECT_NAME    = COSMOS 1536
OBJECT_ID      = 1984-013A
CENTER_NAME    = EARTH
REF_FRAME      = TEME
TIME_SYSTEM    = UTC
MEAN_ELEMENT_THEORY = SGP/SGP4

EPOCH          = 2026-02-26T05:27:49.163904
MEAN_MOTION    = 15.23653415
ECCENTRICITY   = .0013247
INCLINATION    = 82.5451
RA_OF_ASC_NODE = 119.2430
ARG_OF_PERICENTER = 327.9596
MEAN_ANOMALY   = 32.0834

EPHEMERIS_TYPE = 0
CLASSIFICATION_TYPE = U
NORAD_CAT_ID   = 14699
ELEMENT_SET_NO = 999
REV_AT_EPOCH   = 27087
BSTAR          = .25826704E-3
MEAN_MOTION_DOT = .6236E-4
MEAN_MOTION_DDOT = 0

CCSDS_OMM_VERS = 2.0
CREATION_DATE  = 
ORIGINATOR     = 

OBJECT_NAME    = SL-14 R/B
OBJECT_ID      = 1984-027B
CENTER_NAME    = EARTH
REF_FRAME      = TEME
TIME_SYSTEM    = UTC
MEAN_ELEMENT_THEORY = SGP/SGP4

EPOCH          = 2026-02-26T01:02:57.961824
MEAN_MOTION    = 14.85962319
ECCENTRICITY   = .0018378
INCLINATION    = 82.5381
RA_OF_ASC_NODE = 255.9385
ARG_OF_PERICENTER = 16.8883
MEAN_ANOMALY   = 343.2941

EPHEMERIS_TYPE = 0
CLASSIFICATION_TYPE = U
NORAD_CAT_ID   = 14820
ELEMENT_SET_NO = 999
REV_AT_EPOCH   = 24590
BSTAR          = .44557E-4
MEAN_MOTION_DOT = .414E-5
MEAN_MOTION_DDOT = 0

CCSDS_OMM_VERS = 2.0
CREATION_DATE  = 
ORIGINATOR     = 

OBJECT_NAME    = SL-8 R/B
OBJECT_ID      = 1985-006B
CENTER_NAME    = EARTH
REF_FRAME      = TEME
TIME_SYSTEM    = UTC
MEAN_ELEMENT_THEORY = SGP/SGP4

EPOCH          = 2026-02-26T02:51:10.869984
MEAN_MOTION    = 14.37775878
ECCENTRICITY   = .00189179
INCLINATION    = 74.0439
RA_OF_ASC_NODE = 282.4415
ARG_OF_PERICENTER = 202.6711
MEAN_ANOMALY   = 276.1374

EPHEMERIS_TYPE = 0
CLASSIFICATION_TYPE = U
NORAD_CAT_ID   = 15483
ELEMENT_SET_NO = 999
REV_AT_EPOCH   = 15236
BSTAR          = .55072472E-4
MEAN_MOTION_DOT = .14E-5
MEAN_MOTION_DDOT = 0

CCSDS_OMM_VERS = 2.0
CREATION_DATE  = 
ORIGINATOR     = 

OBJECT_NAME    = SL-12 R/B(2)
OBJECT_ID      = 1985-042D
CENTER_NAME    = EARTH
REF_FRAME      = TEME
TIME_SYSTEM    = UTC
MEAN_ELEMENT_THEORY = SGP/SGP4

EPOCH          = 2026-02-26T07:11:51.577728
MEAN_MOTION    = 14.21978952
ECCENTRICITY   = .00338288
INCLINATION    = 71.1071
RA_OF_ASC_NODE = 111.7938
ARG_OF_PERICENTER = 146.7268
MEAN_ANOMALY   = 283.3514

EPHEMERIS_TYPE = 0
CLASSIFICATION_TYPE = U
NORAD_CAT_ID   = 15772
ELEMENT_SET_NO = 999
REV_AT_EPOCH   = 11277
BSTAR          = .18123987E-4
MEAN_MOTION_DOT = -.7E-7
MEAN_MOTION_DDOT = 0

CCSDS_OMM_VERS = 2.0
CREATION_DATE  = 
ORIGINATOR     = 

OBJECT_NAME    = SL-14 R/B
OBJECT_ID      = 1985-069B
CENTER_NAME    = EARTH
REF_FRAME      = TEME
TIME_SYSTEM    = UTC
MEAN_ELEMENT_THEORY = SGP/SGP4

EPOCH          = 2026-02-25T21:32:15.078336
MEAN_MOTION    = 14.86416861
ECCENTRICITY   = .00175045
INCLINATION    = 82.5259
RA_OF_ASC_NODE = 36.0216
ARG_OF_PERICENTER = 228.3203
MEAN_ANOMALY   = 131.6516

EPHEMERIS_TYPE = 0
CLASSIFICATION_TYPE = U
NORAD_CAT_ID   = 15945
ELEMENT_SET_NO = 999
REV_AT_EPOCH   = 17108
BSTAR          = .56369166E-4
MEAN_MOTION_DOT = .523E-5
MEAN_MOTION_DDOT = 0

CCSDS_OMM_VERS = 2.0
CREATION_DATE  = 
ORIGINATOR     = 

OBJECT_NAME    = SL-16 R/B
OBJECT_ID      = 1985-097B
CENTER_NAME    = EARTH
REF_FRAME      = TEME
TIME_SYSTEM    = UTC
MEAN_ELEMENT_THEORY = SGP/SGP4

EPOCH          = 2026-02-26T06:11:21.467040
MEAN_MOTION    = 14.16597843
ECCENTRICITY   = .00097791
INCLINATION    = 71.0037
RA_OF_ASC_NODE = 164.6194
ARG_OF_PERICENTER = 272.8044
MEAN_ANOMALY   = 112.5559

EPHEMERIS_TYPE = 0
CLASSIFICATION_TYPE = U
NORAD_CAT_ID   = 16182
ELEMENT_SET_NO = 999
REV_AT_EPOCH   = 8561
BSTAR          = .14519117E-3
MEAN_MOTION_DOT = .242E-5
MEAN_MOTION_DDOT = 0

CCSDS_OMM_VERS = 2.0
CREATION_DATE  = 
ORIGINATOR     = 

OBJECT_NAME    = SL-14 R/B
OBJECT_ID      = 1986-006B
CENTER_NAME    = EARTH
REF_FRAME      = TEME
TIME_SYSTEM    = UTC
MEAN_ELEMENT_THEORY = SGP/SGP4

EPOCH          = 2026-02-26T01:54:23.713632
MEAN_MOTION    = 14.86797345
ECCENTRICITY   = .00754446
INCLINATION    = 82.5239
RA_OF_ASC_NODE = 270.6671
ARG_OF_PERICENTER = 312.0190
MEAN_ANOMALY   = 47.4618

EPHEMERIS_TYPE = 0
CLASSIFICATION_TYPE = U
NORAD_CAT_ID   = 16496
ELEMENT_SET_NO = 999
REV_AT_EPOCH   = 14748
BSTAR          = .55091171E-4
MEAN_MOTION_DOT = .542E-5
MEAN_MOTION_DDOT = 0

CCSDS_OMM_VERS = 2.0
CREATION_DATE  = 
ORIGINATOR     = 

OBJECT_NAME    = COSMOS 1743
OBJECT_ID      = 1986-034A
CENTER_NAME    = EARTH
REF_FRAME      = TEME
TIME_SYSTEM    = UTC
MEAN_ELEMENT_THEORY = SGP/SGP4

EPOCH          = 2026-02-26T03:30:13.881600
MEAN_MOTION    = 15.57632852
ECCENTRICITY   = .00030258
INCLINATION    = 82.5313
RA_OF_ASC_NODE = 85.9392
ARG_OF_PERICENTER = 358.3722
MEAN_ANOMALY   = 1.7523

EPHEMERIS_TYPE = 0
CLASSIFICATION_TYPE = U
NORAD_CAT_ID   = 16719
ELEMENT_SET_NO = 999
REV_AT_EPOCH   = 17845
BSTAR          = .47133254E-3
MEAN_MOTION_DOT = .34946E-3
MEAN_MOTION_DDOT = 0

