SL-3 R/B                
1 13403U 82079B   26057.24769439  .00006894  00000+0  27624-3 0  9991
2 13403  81.1458 206.5842 0024600 203.4044 156.6072 15.24597515375956
SL-14 R/B               
1 13553U 82092B   26057.26088586  .00000482  00000+0  51415-4 0  9994
2 13553  82.5711 152.0871 0019794 343.4202  35.8281 14.86652769327233
SL-3 R/B                
1 13819U 83010B   26056.85265027  .00015396  00000+0  31420-3 0  9994
2 13819  81.1044  16.7528 0018642  88.2238 272.1142 15.45865966356113
SL-3 R/B                
1 14208U 83075B   26057.23814124  .00011926  00000+0  31826-3 0  9994
2 14208  97.6141  61.3855 0019612 271.0244  88.8753 15.38094668328396
COSMOS 1536             
1 14699U 84013A   26057.22765236  .00006236  00000+0  25827-3 0  9991
2 14699  82.5451 119.2430 0013247 327.9596  32.0834 15.23653415270873
SL-14 R/B               
1 14820U 84027B   26057.04372641  .00000414  00000+0  44557-4 0  9990
2 14820  82.5381 255.9385 0018378  16.8883 343.2941 14.85962319245906
SL-8 R/B                
1 15483U 85006B   26057.11887581  .00000140  00000+0  55072-4 0  9996
2 15483  74.0439 282.4415 0018917 202.6711 276.1374 14.37775878152365
SL-12 R/B(2)            
1 15772U 85042D   26057.29990252 -.00000007  00000+0  18124-4 0  9996
2 15772  71.1071 111.7938 0033828 146.7268 283.3514 14.21978952112771
SL-14 R/B               
1 15945U 85069B   26056.89739674  .00000523  00000+0  56369-4 0  9996
2 15945  82.5259  36.0216 0017504 228.3203 131.6516 14.86416861171087
SL-16 R/B               
1 16182U 85097B   26057.25788735  .00000242  00000+0  14519-3 0  9992
2 16182  71.0037 164.6194 0009779 272.8044 112.5559 14.16597843 85614
SL-14 R/B               
1 16496U 86006B   26057.07944113  .00000542  00000+0  55091-4 0  9999
2 16496  82.5239 270.6671 0075444 312.0190  47.4618 14.86797345147484
COSMOS 1743             
1 16719U 86034A   26057.14599400  .00034946  00000+0  47133-3 0  9993
2 16719  82.5313  85.9392 0003025 358.3722   1.7523 15.57632852178451
